{"type": "FeatureCollection", "features": [ {"type": "Feature", "properties": {"norad_id": 34547, "name": "COSMOS 2251 DEB", "group": "cosmos-2251-debris", "lat": -16.566661770970367, "lon": 84.01533188456789, "alt_km": 669.4850863469828, "timestamp": "2025-12-18T19:29:52.936814+00:00", "meta": {"OBJECT_NAME": "COSMOS 2251 DEB", "OBJECT_ID": "1993-036UH", "EPOCH": "2025-12-18T00:00:33.368544", "MEAN_MOTION": 14.72459383, "ECCENTRICITY": 0.00167925, "INCLINATION": 74.0311, "RA_OF_ASC_NODE": 90.4822, "ARG_OF_PERICENTER": 169.4859, "MEAN_ANOMALY": 190.6668, "EPHEMERIS_TYPE": 0, "CLASSIFICATION_TYPE": "U", "NORAD_CAT_ID": 34547, "ELEMENT_SET_NO": 999, "REV_AT_EPOCH": 88599, "BSTAR": 0.0012962245, "MEAN_MOTION_DOT": 8.219e-05, "MEAN_MOTION_DDOT": 0}, "tle": {"line1": "1 34547U 93036UH  25352.00038621  .00008219  00000+0  12962-2 0  9992", "line2": "2 34547  74.0311  90.4822 0016792 169.4859 190.6668 14.72459383885994"}}, "geometry": {"type": "Point", "coordinates": [84.01533188456789, -16.566661770970367]}}, {"type": "Feature", "properties": {"norad_id": 34553, "name": "COSMOS 2251 DEB", "group": "cosmos-2251-debris", "lat": -71.67802937060921, "lon": 120.4400425801864, "alt_km": 694.7309025226014, "timestamp": "2025-12-18T19:29:52.936824+00:00", "meta": {"OBJECT_NAME": "COSMOS 2251 DEB", "OBJECT_ID": "1993-036UP", "EPOCH": "2025-12-18T06:56:13.100928", "MEAN_MOTION": 14.57773361, "ECCENTRICITY": 0.00191456, "INCLINATION": 74.0239, "RA_OF_ASC_NODE": 181.3332, "ARG_OF_PERICENTER": 258.2175, "MEAN_ANOMALY": 155.236, "EPHEMERIS_TYPE": 0, "CLASSIFICATION_TYPE": "U", "NORAD_CAT_ID": 34553, "ELEMENT_SET_NO": 999, "REV_AT_EPOCH": 88177, "BSTAR": 0.00087890527, "MEAN_MOTION_DOT": 4.001e-05, "MEAN_MOTION_DDOT": 0}, "tle": {"line1": "1 34553U 93036UP  25352.28904052  .00004001  00000+0  87891-3 0  9998", "line2": "2 34553  74.0239 181.3332 0019145 258.2175 155.2360 14.57773361881775"}}, "geometry": {"type": "Point", "coordinates": [120.4400425801864, -71.67802937060921]}}, {"type": "Feature", "properties": {"norad_id": 34554, "name": "COSMOS 2251 DEB", "group": "cosmos-2251-debris", "lat": -45.541821674630555, "lon": -89.14561644931449, "alt_km": 758.3774314054745, "timestamp": "2025-12-18T19:29:52.936834+00:00", "meta": {"OBJECT_NAME": "COSMOS 2251 DEB", "OBJECT_ID": "1993-036UQ", "EPOCH": "2025-12-16T21:16:03.021312", "MEAN_MOTION": 14.37947436, "ECCENTRICITY": 0.00231805, "INCLINATION": 74.0394, "RA_OF_ASC_NODE": 291.3565, "ARG_OF_PERICENTER": 352.8955, "MEAN_ANOMALY": 71.8534, "EPHEMERIS_TYPE": 0, "CLASSIFICATION_TYPE": "U", "NORAD_CAT_ID": 34554, "ELEMENT_SET_NO": 999, "REV_AT_EPOCH": 87815, "BSTAR": 0.0003042812, "MEAN_MOTION_DOT": 8.96e-06, "MEAN_MOTION_DDOT": 0}, "tle": {"line1": "1 34554U 93036UQ  25350.88614608  .00000896  00000+0  30428-3 0  9990", "line2": "2 34554  74.0394 291.3565 0023180 352.8955  71.8534 14.37947436878157"}}, "geometry": {"type": "Point", "coordinates": [-89.14561644931449, -45.541821674630555]}}, {"type": "Feature", "properties": {"norad_id": 34556, "name": "COSMOS 2251 DEB", "group": "cosmos-2251-debris", "lat": -72.8370482299854, "lon": 1.0620336173006906, "alt_km": 642.6949578315998, "timestamp": "2025-12-18T19:29:52.936844+00:00", "meta": {"OBJECT_NAME": "COSMOS 2251 DEB", "OBJECT_ID": "1993-036US", "EPOCH": "2025-12-18T02:51:34.593696", "MEAN_MOTION": 14.77965868, "ECCENTRICITY": 0.00070914, "INCLINATION": 74.0157, "RA_OF_ASC_NODE": 114.2818, "ARG_OF_PERICENTER": 174.6338, "MEAN_ANOMALY": 1.8269, "EPHEMERIS_TYPE": 0, "CLASSIFICATION_TYPE": "U", "NORAD_CAT_ID": 34556, "ELEMENT_SET_NO": 999, "REV_AT_EPOCH": 88408, "BSTAR": 0.0017022579, "MEAN_MOTION_DOT": 0.00012269, "MEAN_MOTION_DDOT": 0}, "tle": {"line1": "1 34556U 93036US  25352.11915039  .00012269  00000+0  17023-2 0  9994", "line2": "2 34556  74.0157 114.2818 0007091 174.6338   1.8269 14.77965868884088"}}, "geometry": {"type": "Point", "coordinates": [1.0620336173006906, -72.8370482299854]}}, {"type": "Feature", "properties": {"norad_id": 34560, "name": "COSMOS 2251 DEB", "group": "cosmos-2251-debris", "lat": 31.41347550443634, "lon": 140.38526932011618, "alt_km": 661.7480908519938, "timestamp": "2025-12-18T19:29:52.936854+00:00", "meta": {"OBJECT_NAME": "COSMOS 2251 DEB", "OBJECT_ID": "1993-036UW", "EPOCH": "2025-12-17T15:41:08.816928", "MEAN_MOTION": 14.72264395, "ECCENTRICITY": 0.00143221, "INCLINATION": 74.0157, "RA_OF_ASC_NODE": 132.5599, "ARG_OF_PERICENTER": 214.2308, "MEAN_ANOMALY": 159.1503, "EPHEMERIS_TYPE": 0, "CLASSIFICATION_TYPE": "U", "NORAD_CAT_ID": 34560, "ELEMENT_SET_NO": 999, "REV_AT_EPOCH": 88324, "BSTAR": 0.0016251036, "MEAN_MOTION_DOT": 0.00010264, "MEAN_MOTION_DDOT": 0}, "tle": {"line1": "1 34560U 93036UW  25351.65357427  .00010264  00000+0  16251-2 0  9993", "line2": "2 34560  74.0157 132.5599 0014322 214.2308 159.1503 14.72264395883242"}}, "geometry": {"type": "Point", "coordinates": [140.38526932011618, 31.41347550443634]}}, {"type": "Feature", "properties": {"norad_id": 34563, "name": "COSMOS 2251 DEB", "group": "cosmos-2251-debris", "lat": -41.363339098618425, "lon": 177.7737588243509, "alt_km": 734.745542820714, "timestamp": "2025-12-18T19:29:52.936864+00:00", "meta": {"OBJECT_NAME": "COSMOS 2251 DEB", "OBJECT_ID": "1993-036UZ", "EPOCH": "2025-12-17T13:57:54.362016", "MEAN_MOTION": 14.46524783, "ECCENTRICITY": 0.00138937, "INCLINATION": 74.0368, "RA_OF_ASC_NODE": 194.668, "ARG_OF_PERICENTER": 288.352, "MEAN_ANOMALY": 102.8105, "EPHEMERIS_TYPE": 0, "CLASSIFICATION_TYPE": "U", "NORAD_CAT_ID": 34563, "ELEMENT_SET_NO": 999, "REV_AT_EPOCH": 88267, "BSTAR": 0.00035442209, "MEAN_MOTION_DOT": 1.251e-05, "MEAN_MOTION_DDOT": 0}, "tle": {"line1": "1 34563U 93036UZ  25351.58187919  .00001251  00000+0  35442-3 0  9995", "line2": "2 34563  74.0368 194.6680 0013893 288.3520 102.8105 14.46524783882679"}}, "geometry": {"type": "Point", "coordinates": [177.7737588243509, -41.363339098618425]}}, {"type": "Feature", "properties": {"norad_id": 34564, "name": "COSMOS 2251 DEB", "group": "cosmos-2251-debris", "lat": -30.48823990764446, "lon": -142.92827669256934, "alt_km": 748.0957243294033, "timestamp": "2025-12-18T19:29:52.936874+00:00", "meta": {"OBJECT_NAME": "COSMOS 2251 DEB", "OBJECT_ID": "1993-036VA", "EPOCH": "2025-12-18T02:00:44.359200", "MEAN_MOTION": 14.40699544, "ECCENTRICITY": 0.00192193, "INCLINATION": 74.0319, "RA_OF_ASC_NODE": 228.1246, "ARG_OF_PERICENTER": 331.2703, "MEAN_ANOMALY": 179.7604, "EPHEMERIS_TYPE": 0, "CLASSIFICATION_TYPE": "U", "NORAD_CAT_ID": 34564, "ELEMENT_SET_NO": 999, "REV_AT_EPOCH": 88083, "BSTAR": 0.00020480669, "MEAN_MOTION_DOT": 6.29e-06, "MEAN_MOTION_DDOT": 0}, "tle": {"line1": "1 34564U 93036VA  25352.08384675  .00000629  00000+0  20481-3 0  9995", "line2": "2 34564  74.0319 228.1246 0019219 331.2703 179.7604 14.40699544880831"}}, "geometry": {"type": "Point", "coordinates": [-142.92827669256934, -30.48823990764446]}}, {"type": "Feature", "properties": {"norad_id": 34567, "name": "COSMOS 2251 DEB", "group": "cosmos-2251-debris", "lat": 9.925991061737834, "lon": 148.72138624757375, "alt_km": 859.9098531874752, "timestamp": "2025-12-18T19:29:52.936884+00:00", "meta": {"OBJECT_NAME": "COSMOS 2251 DEB", "OBJECT_ID": "1993-036VD", "EPOCH": "2025-12-18T03:10:00.153408", "MEAN_MOTION": 14.24022479, "ECCENTRICITY": 0.00743013, "INCLINATION": 74.0404, "RA_OF_ASC_NODE": 147.0753, "ARG_OF_PERICENTER": 220.215, "MEAN_ANOMALY": 262.7776, "EPHEMERIS_TYPE": 0, "CLASSIFICATION_TYPE": "U", "NORAD_CAT_ID": 34567, "ELEMENT_SET_NO": 999, "REV_AT_EPOCH": 87201, "BSTAR": 0.0002007918, "MEAN_MOTION_DOT": 4.49e-06, "MEAN_MOTION_DDOT": 0}, "tle": {"line1": "1 34567U 93036VD  25352.13194622  .00000449  00000+0  20079-3 0  9998", "line2": "2 34567  74.0404 147.0753 0074301 220.2150 262.7776 14.24022479872010"}}, "geometry": {"type": "Point", "coordinates": [148.72138624757375, 9.925991061737834]}}, {"type": "Feature", "properties": {"norad_id": 34569, "name": "COSMOS 2251 DEB", "group": "cosmos-2251-debris", "lat": -12.174226396008498, "lon": 10.70703863113101, "alt_km": 926.5308394887643, "timestamp": "2025-12-18T19:29:52.936894+00:00", "meta": {"OBJECT_NAME": "COSMOS 2251 DEB", "OBJECT_ID": "1993-036VF", "EPOCH": "2025-12-18T07:38:36.855168", "MEAN_MOTION": 14.24766516, "ECCENTRICITY": 0.01575628, "INCLINATION": 73.9892, "RA_OF_ASC_NODE": 188.0485, "ARG_OF_PERICENTER": 15.1649, "MEAN_ANOMALY": 164.8718, "EPHEMERIS_TYPE": 0, "CLASSIFICATION_TYPE": "U", "NORAD_CAT_ID": 34569, "ELEMENT_SET_NO": 999, "REV_AT_EPOCH": 87047, "BSTAR": 0.00037975731, "MEAN_MOTION_DOT": 9.8e-06, "MEAN_MOTION_DDOT": 0}, "tle": {"line1": "1 34569U 93036VF  25352.31848212  .00000980  00000+0  37976-3 0  9995", "line2": "2 34569  73.9892 188.0485 0157562  15.1649 164.8718 14.24766516870476"}}, "geometry": {"type": "Point", "coordinates": [10.70703863113101, -12.174226396008498]}}, {"type": "Feature", "properties": {"norad_id": 34570, "name": "COSMOS 2251 DEB", "group": "cosmos-2251-debris", "lat": -58.60536171902929, "lon": 179.5903920718286, "alt_km": 1022.1081128575361, "timestamp": "2025-12-18T19:29:52.936904+00:00", "meta": {"OBJECT_NAME": "COSMOS 2251 DEB", "OBJECT_ID": "1993-036VG", "EPOCH": "2025-12-17T14:47:22.949376", "MEAN_MOTION": 13.99827814, "ECCENTRICITY": 0.01902686, "INCLINATION": 73.9566, "RA_OF_ASC_NODE": 209.802, "ARG_OF_PERICENTER": 91.1991, "MEAN_ANOMALY": 301.5791, "EPHEMERIS_TYPE": 0, "CLASSIFICATION_TYPE": "U", "NORAD_CAT_ID": 34570, "ELEMENT_SET_NO": 999, "REV_AT_EPOCH": 85669, "BSTAR": 0.00040162603, "MEAN_MOTION_DOT": 6.66e-06, "MEAN_MOTION_DDOT": 0}, "tle": {"line1": "1 34570U 93036VG  25351.61623784  .00000666  00000+0  40163-3 0  9997", "line2": "2 34570  73.9566 209.8020 0190268  91.1991 301.5791 13.99827814856696"}}, "geometry": {"type": "Point", "coordinates": [179.5903920718286, -58.60536171902929]}}]}